[
    {
        "Altitude(m)": 604983.0529183298,
        "Argument of Periapsis(deg)": 0.0,
        "Eccentricity": 0.0,
        "Inclination(deg)": 60.0,
        "Latitude(deg)": -0.09260544142507915,
        "Longitude(deg)": 25.083916542501917,
        "Mean Anomaly(deg)": -180.00000000000003,
        "RAAN(deg)": 305.0,
        "Satellite Name": "Test1 1353",
        "Satellite Number": 1353,
        "Semi-Major Axis(m)": 6980739.136638005,
        "Time(s)": 0
    },
    {
        "Altitude(m)": 605055.3320783597,
        "Argument of Periapsis(deg)": 0.00010418945913296404,
        "Eccentricity": 0.0,
        "Inclination(deg)": 60.0,
        "Latitude(deg)": -0.6330149012995351,
        "Longitude(deg)": 25.35204227756893,
        "Mean Anomaly(deg)": -179.37989385453818,
        "RAAN(deg)": 304.99957995086027,
        "Satellite Name": "Test1 1353",
        "Satellite Number": 1353,
        "Semi-Major Axis(m)": 6980739.136638005,
        "Time(s)": 10
    }
]